OBJECT_NAME,OBJECT_ID,EPOCH,MEAN_MOTION,ECCENTRICITY,INCLINATION,RA_OF_ASC_NODE,ARG_OF_PERICENTER,MEAN_ANOMALY,EPHEMERIS_TYPE,CLASSIFICATION_TYPE,NORAD_CAT_ID,ELEMENT_SET_NO,REV_AT_EPOCH,BSTAR,MEAN_MOTION_DOT,MEAN_MOTION_DDOT
COSMO-SKYMED 1,2007-023A,2026-07-16T03:23:04.279200,14.97222020,.0001508,97.8846,29.2419,102.7736,257.3654,0,U,31598,999,3412,.12681E-3,.1407E-4,0
COSMOS 2428,2007-029A,2026-07-15T12:47:17.085696,14.12934606,.00072036,70.9381,294.9624,80.5752,279.6183,0,U,31792,999,98215,.15641268E-3,.244E-5,0
SL-16 R/B,2007-029B,2026-07-16T05:29:51.101088,14.14852236,.000194,70.9744,262.1795,256.5188,120.3646,0,U,31793,999,98355,.13887E-3,.22E-5,0
KORONAS-FOTON,2009-003A,2026-07-15T21:08:23.256672,15.46309035,.0012119,82.4311,142.3153,60.3216,299.9238,0,U,33504,999,96553,.15934E-3,.7914E-4,0
CZ-2C R/B,2011-030B,2026-07-15T21:07:24.796704,14.81533069,.0050797,97.8670,151.7525,293.8643,124.8401,0,U,37731,999,80907,.65325E-4,.468E-5,0
H-2A R/B,2012-025E,2026-07-15T22:07:21.983808,14.95838466,.00425336,98.4847,174.4421,252.6414,107.0151,0,U,38341,999,76738,.52124781E-4,.521E-5,0
SHIJIAN-16 (SJ-16),2013-057A,2026-07-16T04:40:12.105984,14.92675228,.0015753,74.9744,301.7411,162.3513,197.8226,0,U,39358,999,69067,.1347E-3,.1363E-4,0
SL-4 R/B,2014-021B,2026-07-16T03:47:30.882048,15.42494497,.0089559,51.6065,68.7835,212.0367,147.5156,0,U,39679,999,67608,.10807E-3,.5027E-4,0
ALOS-2,2014-029A,2026-07-16T05:18:40.383936,14.79467160,.0001573,97.9235,293.9696,92.0748,268.0643,0,U,39766,999,65587,.52308E-4,.339E-5,0
YAOGAN-29,2015-069A,2026-07-16T04:31:57.473760,14.83108854,.0000642,98.0016,225.8661,14.8615,345.2617,0,U,41038,999,57492,.75507E-4,.561E-5,0
ASTRO-H (HITOMI),2016-012A,2026-07-16T04:11:13.802784,15.10634673,.000966,30.9979,246.9619,185.1656,174.8883,0,U,41337,999,57167,.66541E-4,.1225E-4,0
HXMT (HUIYAN),2017-034A,2026-07-16T00:13:12.237024,15.18692866,.0032202,43.0154,22.5259,325.8527,34.0250,0,U,42758,999,50204,.11623E-3,.2239E-4,0
SAOCOM 1A,2018-076A,2026-07-16T03:58:26.570784,14.82148405,.0001479,97.8880,23.4927,85.0188,275.1194,0,U,43641,999,42039,.28514E-4,.175E-5,0
H-2A R/B,2018-084L,2026-07-16T03:06:53.157024,15.46223656,.0020525,98.8528,82.3652,297.1996,62.7156,0,U,43682,999,42559,.22821E-3,.11187E-3,0
SAOCOM 1B,2020-059A,2026-07-16T04:43:21.981216,14.82157206,.0001493,97.8883,22.6196,83.5223,276.6160,0,U,46265,999,31778,-.27186E-5,-.74E-6,0
CSS (TIANHE),2021-035A,2026-07-15T12:51:01.431072,15.58093729,.0002229,41.4690,149.7716,300.3824,59.6794,0,U,48274,999,29759,.20014E-4,.1219E-4,0
COSMOS 2550,2021-056A,2026-07-16T04:07:54.471936,15.33833184,.0008517,67.1435,12.2277,270.1804,89.8375,0,U,48865,999,28316,.85486E-4,.2622E-4,0
CZ-2C R/B,2022-058K,2026-07-15T12:02:53.242368,15.63873458,.00301342,50.1855,15.9607,23.9117,336.3250,0,U,52794,999,23007,.28016353E-3,.27038E-3,0
CZ-2C R/B,2022-132E,2026-07-16T00:40:21.764352,15.75069223,.000931,97.2889,205.4165,338.1148,21.9719,0,U,54039,999,21048,.3182E-3,.47469E-3,0
GSLV R/B,2022-138AN,2026-07-16T04:32:30.602112,14.97384955,.0023431,87.3817,123.2457,48.9527,311.3725,0,U,54149,999,20315,.11213E-3,.1339E-4,0
XRISM,2023-137A,2026-07-16T05:25:36.959808,15.12673133,.0007892,31.0008,171.4636,256.3423,103.6337,0,U,57800,999,15726,.10846E-3,.2044E-4,0
ACS3,2024-077B,2026-07-15T18:09:01.492992,13.95277532,.012633,97.1742,109.2138,36.0393,324.9210,0,U,59588,999,11202,.23387E-2,.3353E-4,0
SPACEMOBILE-003,2024-163A,2026-07-16T04:46:48.809856,15.20707297,.0004707,52.9668,176.0266,196.8318,163.2521,0,U,61045,999,10218,.57482E-4,.954E-5,0
SPACEMOBILE-005,2024-163B,2026-07-16T02:48:19.418688,15.20721056,.0008666,52.9763,176.3550,198.3966,161.6716,0,U,61046,999,10216,.10509E-3,.2015E-4,0
SPACEMOBILE-001,2024-163C,2026-07-16T02:45:55.313856,15.20741960,.0007146,52.9730,176.0724,196.3866,163.6898,0,U,61047,999,10216,.18319E-4,.8E-6,0
SPACEMOBILE-002,2024-163D,2026-07-16T05:31:55.802208,15.20777977,.0005878,52.9781,175.5821,195.8282,164.2529,0,U,61048,999,10218,-.20798E-4,-.792E-5,0
SPACEMOBILE-004,2024-163E,2026-07-15T14:55:07.061664,15.20780797,.00065792,52.9675,178.1586,225.4338,134.6120,0,U,61049,999,10209,.55840965E-3,.1216E-3,0
CZ-8A R/B,2025-231K,2026-07-15T13:27:39.315744,14.30162280,.0116565,50.0042,278.6032,323.8982,35.4104,0,U,66004,999,3900,.43431E-4,-.43E-6,0
SZ-21 MODULE,2025-246C,2026-07-15T22:54:47.331072,15.78866927,.0008592,41.4721,127.8201,225.8060,134.2080,0,U,66515,999,3828,.19466E-3,.35292E-3,0
SPACEMOBILE-006,2025-309A,2026-07-15T08:13:11.161056,15.18653983,.00100574,52.9937,202.6601,215.7672,144.2649,0,U,67232,999,3087,.48788741E-4,.702E-5,0
